{"type": "FeatureCollection", "features": [{"type": "Feature", "properties": {"NM_MUN": "Macapá"}, "geometry": {"type": "Polygon", "coordinates": [[[-51.5, -0.5], [-50.6, -0.5], [-50.6, 0.4], [-51.5, 0.4], [-51.5, -0.5]]]}}, {"type": "Feature", "properties": {"NM_MUN": "Santana"}, "geometry": {"type": "Polygon", "coordinates": [[[-51.4, -0.3], [-50.9, -0.3], [-50.9, -0.0], [-51.4, -0.0], [-51.4, -0.3]]]}}, {"type": "Feature", "properties": {"NM_MUN": "Laranjal do Jari"}, "geometry": {"type": "Polygon", "coordinates": [[[-53.0, -1.3], [-51.8, -1.3], [-51.8, 0.1], [-53.0, 0.1], [-53.0, -1.3]]]}}, {"type": "Feature", "properties": {"NM_MUN": "Oiapoque"}, "geometry": {"type": "Polygon", "coordinates": [[[-52.4, 3.2], [-51.0, 3.2], [-51.0, 4.5], [-52.4, 4.5], [-52.4, 3.2]]]}}, {"type": "Feature", "properties": {"NM_MUN": "Mazagão"}, "geometry": {"type": "Polygon", "coordinates": [[[-52.0, -0.6], [-51.0, -0.6], [-51.0, 0.3], [-52.0, 0.3], [-52.0, -0.6]]]}}, {"type": "Feature", "properties": {"NM_MUN": "Porto Grande"}, "geometry": {"type": "Polygon", "coordinates": [[[-52.0, 0.4], [-51.0, 0.4], [-51.0, 1.1], [-52.0, 1.1], [-52.0, 0.4]]]}}, {"type": "Feature", "properties": {"NM_MUN": "Tartarugalzinho"}, "geometry": {"type": "Polygon", "coordinates": [[[-51.5, 1.0], [-50.5, 1.0], [-50.5, 2.2], [-51.5, 2.2], [-51.5, 1.0]]]}}, {"type": "Feature", "properties": {"NM_MUN": "Amapá"}, "geometry": {"type": "Polygon", "coordinates": [[[-51.5, 1.7], [-50.2, 1.7], [-50.2, 2.5], [-51.5, 2.5], [-51.5, 1.7]]]}}, {"type": "Feature", "properties": {"NM_MUN": "Calçoene"}, "geometry": {"type": "Polygon", "coordinates": [[[-51.5, 2.0], [-50.4, 2.0], [-50.4, 3.2], [-51.5, 3.2], [-51.5, 2.0]]]}}, {"type": "Feature", "properties": {"NM_MUN": "Vitória do Jari"}, "geometry": {"type": "Polygon", "coordinates": [[[-52.8, -1.3], [-52.0, -1.3], [-52.0, -0.5], [-52.8, -0.5], [-52.8, -1.3]]]}}, {"type": "Feature", "properties": {"NM_MUN": "Ferreira Gomes"}, "geometry": {"type": "Polygon", "coordinates": [[[-51.5, 0.6], [-50.9, 0.6], [-50.9, 1.1], [-51.5, 1.1], [-51.5, 0.6]]]}}, {"type": "Feature", "properties": {"NM_MUN": "Cutias"}, "geometry": {"type": "Polygon", "coordinates": [[[-51.2, 0.7], [-50.6, 0.7], [-50.6, 1.2], [-51.2, 1.2], [-51.2, 0.7]]]}}, {"type": "Feature", "properties": {"NM_MUN": "Itaubal"}, "geometry": {"type": "Polygon", "coordinates": [[[-50.9, 0.3], [-50.4, 0.3], [-50.4, 0.9], [-50.9, 0.9], [-50.9, 0.3]]]}}, {"type": "Feature", "properties": {"NM_MUN": "Pracuúba"}, "geometry": {"type": "Polygon", "coordinates": [[[-51.2, 1.4], [-50.4, 1.4], [-50.4, 2.0], [-51.2, 2.0], [-51.2, 1.4]]]}}, {"type": "Feature", "properties": {"NM_MUN": "Serra do Navio"}, "geometry": {"type": "Polygon", "coordinates": [[[-52.5, 0.6], [-51.7, 0.6], [-51.7, 1.2], [-52.5, 1.2], [-52.5, 0.6]]]}}, {"type": "Feature", "properties": {"NM_MUN": "Pedra Branca do Amapari"}, "geometry": {"type": "Polygon", "coordinates": [[[-52.3, 0.4], [-51.5, 0.4], [-51.5, 1.0], [-52.3, 1.0], [-52.3, 0.4]]]}}]}